{"fetched_at":"2026-03-29T16:36:15Z","count":15609,"tles":[{"name":"STARLINK-4142","line1":"1 53255U 22086P   26087.76835831  .00001543  00000+0  11495-3 0  9997","line2":"2 53255  53.2164 108.4740 0001337  77.8853 282.2289 15.08858326203946","category":"Starlink"}]}